{
  "type": "FeatureCollection",
  "features": [
    {
      "type": "Feature",
      "properties": {
        "norad_id": 66472,
        "name": "STARLINK-35567",
        "group": "last-30-days",
        "lat": -40.8041698012002,
        "lon": 57.549807365235445,
        "alt_km": 390.03657901241604,
        "timestamp": "2025-12-03T10:52:56.221833+00:00",
        "meta_object_name": "STARLINK-35567",
        "meta_object_id": "2025-262S",
        "meta_epoch": "2025-12-03T04:00:01.998720",
        "meta_mean_motion": 15.61255778,
        "meta_eccentricity": 0.0001502,
        "meta_inclination": 42.9994,
        "meta_ra_of_asc_node": 127.1434,
        "meta_arg_of_pericenter": 285.4545,
        "meta_mean_anomaly": 188.2611,
        "meta_ephemeris_type": 0,
        "meta_classification_type": "U",
        "meta_norad_cat_id": 66472,
        "meta_element_set_no": 999,
        "meta_rev_at_epoch": 410,
        "meta_bstar": -0.027977,
        "meta_mean_motion_dot": -0.02166131,
        "meta_mean_motion_ddot": 0,
        "tle_line1": "1 66472U 25262S   25337.16668980 -.02166131  00000+0 -27977-1 0  9990",
        "tle_line2": "2 66472  42.9994 127.1434 0001502 285.4545 188.2611 15.61255778  4106"
      },
      "geometry": {
        "type": "Point",
        "coordinates": [
          57.549807365235445,
          -40.8041698012002
        ]
      }
    },
    {
      "type": "Feature",
      "properties": {
        "norad_id": 66473,
        "name": "STARLINK-35568",
        "group": "last-30-days",
        "lat": -40.28774325609931,
        "lon": 59.97037026412777,
        "alt_km": 390.0722616100693,
        "timestamp": "2025-12-03T10:52:56.221845+00:00",
        "meta_object_name": "STARLINK-35568",
        "meta_object_id": "2025-262T",
        "meta_epoch": "2025-12-03T04:00:01.998720",
        "meta_mean_motion": 15.6125281,
        "meta_eccentricity": 0.0001428,
        "meta_inclination": 42.9995,
        "meta_ra_of_asc_node": 127.1389,
        "meta_arg_of_pericenter": 279.4037,
        "meta_mean_anomaly": 196.2252,
        "meta_ephemeris_type": 0,
        "meta_classification_type": "U",
        "meta_norad_cat_id": 66473,
        "meta_element_set_no": 999,
        "meta_rev_at_epoch": 410,
        "meta_bstar": -0.027848,
        "meta_mean_motion_dot": -0.02156992,
        "meta_mean_motion_ddot": 0,
        "tle_line1": "1 66473U 25262T   25337.16668980 -.02156992  00000+0 -27848-1 0  9992",
        "tle_line2": "2 66473  42.9995 127.1389 0001428 279.4037 196.2252 15.61252810  4107"
      },
      "geometry": {
        "type": "Point",
        "coordinates": [
          59.97037026412777,
          -40.28774325609931
        ]
      }
    },
    {
      "type": "Feature",
      "properties": {
        "norad_id": 66474,
        "name": "STARLINK-35620",
        "group": "last-30-days",
        "lat": -39.71840285566605,
        "lon": 62.36306270879872,
        "alt_km": 389.997263228408,
        "timestamp": "2025-12-03T10:52:56.221858+00:00",
        "meta_object_name": "STARLINK-35620",
        "meta_object_id": "2025-262U",
        "meta_epoch": "2025-12-03T04:00:01.998720",
        "meta_mean_motion": 15.61242566,
        "meta_eccentricity": 0.0001579,
        "meta_inclination": 42.9994,
        "meta_ra_of_asc_node": 127.1335,
        "meta_arg_of_pericenter": 275.6309,
        "meta_mean_anomaly": 201.9318,
        "meta_ephemeris_type": 0,
        "meta_classification_type": "U",
        "meta_norad_cat_id": 66474,
        "meta_element_set_no": 999,
        "meta_rev_at_epoch": 410,
        "meta_bstar": -0.027844,
        "meta_mean_motion_dot": -0.02156008,
        "meta_mean_motion_ddot": 0,
        "tle_line1": "1 66474U 25262U   25337.16668980 -.02156008  00000+0 -27844-1 0  9997",
        "tle_line2": "2 66474  42.9994 127.1335 0001579 275.6309 201.9318 15.61242566  4109"
      },
      "geometry": {
        "type": "Point",
        "coordinates": [
          62.36306270879872,
          -39.71840285566605
        ]
      }
    },
    {
      "type": "Feature",
      "properties": {
        "norad_id": 66475,
        "name": "STARLINK-35538",
        "group": "last-30-days",
        "lat": -39.105454614893134,
        "lon": 64.69855895705827,
        "alt_km": 389.94491494307476,
        "timestamp": "2025-12-03T10:52:56.221868+00:00",
        "meta_object_name": "STARLINK-35538",
        "meta_object_id": "2025-262V",
        "meta_epoch": "2025-12-03T04:00:01.998720",
        "meta_mean_motion": 15.61258011,
        "meta_eccentricity": 0.0001559,
        "meta_inclination": 42.9993,
        "meta_ra_of_asc_node": 127.1297,
        "meta_arg_of_pericenter": 280.4674,
        "meta_mean_anomaly": 198.9965,
        "meta_ephemeris_type": 0,
        "meta_classification_type": "U",
        "meta_norad_cat_id": 66475,
        "meta_element_set_no": 999,
        "meta_rev_at_epoch": 410,
        "meta_bstar": -0.028015,
        "meta_mean_motion_dot": -0.02168929,
        "meta_mean_motion_ddot": 0,
        "tle_line1": "1 66475U 25262V   25337.16668980 -.02168929  00000+0 -28015-1 0  9994",
        "tle_line2": "2 66475  42.9993 127.1297 0001559 280.4674 198.9965 15.61258011  4108"
      },
      "geometry": {
        "type": "Point",
        "coordinates": [
          64.69855895705827,
          -39.105454614893134
        ]
      }
    },
    {
      "type": "Feature",
      "properties": {
        "norad_id": 66476,
        "name": "STARLINK-35372",
        "group": "last-30-days",
        "lat": -38.444726045130054,
        "lon": 66.99815968531848,
        "alt_km": 390.0515233718779,
        "timestamp": "2025-12-03T10:52:56.221879+00:00",
        "meta_object_name": "STARLINK-35372",
        "meta_object_id": "2025-262W",
        "meta_epoch": "2025-12-03T04:00:01.998720",
        "meta_mean_motion": 15.61260613,
        "meta_eccentricity": 0.0001383,
        "meta_inclination": 42.9995,
        "meta_ra_of_asc_node": 127.1246,
        "meta_arg_of_pericenter": 277.6825,
        "meta_mean_anomaly": 203.6937,
        "meta_ephemeris_type": 0,
        "meta_classification_type": "U",
        "meta_norad_cat_id": 66476,
        "meta_element_set_no": 999,
        "meta_rev_at_epoch": 399,
        "meta_bstar": -0.027983,
        "meta_mean_motion_dot": -0.02166828,
        "meta_mean_motion_ddot": 0,
        "tle_line1": "1 66476U 25262W   25337.16668980 -.02166828  00000+0 -27983-1 0  9994",
        "tle_line2": "2 66476  42.9995 127.1246 0001383 277.6825 203.6937 15.61260613  3996"
      },
      "geometry": {
        "type": "Point",
        "coordinates": [
          66.99815968531848,
          -38.444726045130054
        ]
      }
    },
    {
      "type": "Feature",
      "properties": {
        "norad_id": 66477,
        "name": "STARLINK-35354",
        "group": "last-30-days",
        "lat": -36.991141654811635,
        "lon": 71.46883704958672,
        "alt_km": 389.9925253253441,
        "timestamp": "2025-12-03T10:52:56.221889+00:00",
        "meta_object_name": "STARLINK-35354",
        "meta_object_id": "2025-262X",
        "meta_epoch": "2025-12-03T04:00:01.998720",
        "meta_mean_motion": 15.61258803,
        "meta_eccentricity": 0.0001362,
        "meta_inclination": 42.9996,
        "meta_ra_of_asc_node": 127.1138,
        "meta_arg_of_pericenter": 282.8113,
        "meta_mean_anomaly": 202.4045,
        "meta_ephemeris_type": 0,
        "meta_classification_type": "U",
        "meta_norad_cat_id": 66477,
        "meta_element_set_no": 999,
        "meta_rev_at_epoch": 410,
        "meta_bstar": -0.028014,
        "meta_mean_motion_dot": -0.02168791,
        "meta_mean_motion_ddot": 0,
        "tle_line1": "1 66477U 25262X   25337.16668980 -.02168791  00000+0 -28014-1 0  9992",
        "tle_line2": "2 66477  42.9996 127.1138 0001362 282.8113 202.4045 15.61258803  4102"
      },
      "geometry": {
        "type": "Point",
        "coordinates": [
          71.46883704958672,
          -36.991141654811635
        ]
      }
    },
    {
      "type": "Feature",
      "properties": {
        "norad_id": 66478,
        "name": "STARLINK-35283",
        "group": "last-30-days",
        "lat": -36.202048070363034,
        "lon": 73.63957108203125,
        "alt_km": 389.9335774200199,
        "timestamp": "2025-12-03T10:52:56.221900+00:00",
        "meta_object_name": "STARLINK-35283",
        "meta_object_id": "2025-262Y",
        "meta_epoch": "2025-12-03T04:00:01.998720",
        "meta_mean_motion": 15.61259137,
        "meta_eccentricity": 0.0001492,
        "meta_inclination": 42.9995,
        "meta_ra_of_asc_node": 127.1089,
        "meta_arg_of_pericenter": 275.6628,
        "meta_mean_anomaly": 211.4683,
        "meta_ephemeris_type": 0,
        "meta_classification_type": "U",
        "meta_norad_cat_id": 66478,
        "meta_element_set_no": 999,
        "meta_rev_at_epoch": 410,
        "meta_bstar": -0.028014,
        "meta_mean_motion_dot": -0.02168897,
        "meta_mean_motion_ddot": 0,
        "tle_line1": "1 66478U 25262Y   25337.16668980 -.02168897  00000+0 -28014-1 0  9990",
        "tle_line2": "2 66478  42.9995 127.1089 0001492 275.6628 211.4683 15.61259137  4101"
      },
      "geometry": {
        "type": "Point",
        "coordinates": [
          73.63957108203125,
          -36.202048070363034
        ]
      }
    }
  ]
}